NORAD_CAT_ID,OBJECT_NAME,OBJECT_TYPE,EPOCH,MEAN_MOTION,ECCENTRICITY,INCLINATION,RA_OF_ASC_NODE,ARG_OF_PERICENTER,MEAN_ANOMALY,BSTAR,MEAN_MOTION_DOT,MEAN_MOTION_DDOT,TLE_LINE0,TLE_LINE1,TLE_LINE2,SEMIMAJOR_AXIS,PERIOD,APOGEE,PERIGEE,DECAYED
52633.0,STARLINK-3994,PAYLOAD,2022-07-26 22:00:00,15.20647899,0.0001404,53.2175,82.9413,66.3749,41.4711,-0.052313,-0.01064247,0.0,0 STARLINK-3994,1 52633U 22052AM  22207.91667824 -.01064247  00000-0 -52313-1 0  9997,2 52633  53.2175  82.9413 0001404  66.3749  41.4711 15.20647899  1308,6882.022,94.696,504.853,502.921,0.0
52633.0,STARLINK-3994,PAYLOAD,2022-07-27 12:00:00,15.19316382,0.0001189,53.2175,80.2823,78.4932,343.0611,-0.0541909999999999,-0.01060544,0.0,0 STARLINK-3994,1 52633U 22052AM  22208.50001157 -.01060544  00000-0 -54191-1 0  9996,2 52633  53.2175  80.2823 0001189  78.4932 343.0611 15.19316382 11918,6886.042,94.779,508.726,507.089,0.0
52633.0,STARLINK-3994,PAYLOAD,2022-07-27 14:00:01,15.19128747,0.0001385,53.2175,79.9032,81.6864,75.8825,-0.054698,-0.01064317,0.0,0 STARLINK-3994,1 52633U 22052AM  22208.58334491 -.01064317  00000-0 -54698-1 0  9998,2 52633  53.2175  79.9032 0001385  81.6864  75.8825 15.19128747  1308,6886.609,94.791,509.42800000000005,507.521,0.0
52633.0,STARLINK-3994,PAYLOAD,2022-07-27 22:00:00,15.18367941,0.0001458,53.2175,78.3894,75.3731,105.687,-0.0557779999999999,-0.01075247,0.0,0 STARLINK-3994,1 52633U 22052AM  22208.91667824 -.01075247  00000-0 -55778-1 0  9998,2 52633  53.2175  78.3894 0001458  75.3731 105.6870 15.18367941  1303,6888.91,94.839,511.779,509.77,0.0
52633.0,STARLINK-3994,PAYLOAD,2022-07-28 04:00:00,15.17797768,0.0001307,53.2173,77.2535,82.7124,25.368,-0.056606,-0.01073446,0.0,0 STARLINK-3994,1 52633U 22052AM  22209.16667824 -.01073446  00000-0 -56606-1 0  9996,2 52633  53.2173  77.2535 0001307  82.7124  25.3680 15.17797768 12012,6890.635,94.874,513.4,511.599,0.0
52633.0,STARLINK-3994,PAYLOAD,2022-07-28 14:00:01,15.16849644,0.0001402,53.2175,75.3619,92.7419,132.5646,-0.058351,-0.01076468,0.0,0 STARLINK-3994,1 52633U 22052AM  22209.58334491 -.01076468  00000-0 -58351-1 0  9999,2 52633  53.2175  75.3619 0001402  92.7419 132.5646 15.16849644  1303,6893.505999999999,94.934,516.337,514.404,0.0
52633.0,STARLINK-3994,PAYLOAD,2022-07-28 20:00:01,15.16278676,0.0001395,53.2176,74.2305,83.1741,67.7831,-0.059183,-0.01074231,0.0,0 STARLINK-3994,1 52633U 22052AM  22209.83334491 -.01074231  00000-0 -59183-1 0  9997,2 52633  53.2176  74.2305 0001395  83.1741  67.7831 15.16278676 12114,6895.236,94.969,518.063,516.139,0.0
52633.0,STARLINK-3994,PAYLOAD,2022-07-28 22:00:00,15.16088796,0.0001405,53.2176,73.8535,88.7191,157.3406,-0.059487,-0.01073915,0.0,0 STARLINK-3994,1 52633U 22052AM  22209.91667824 -.01073915  00000-0 -59487-1 0  9990,2 52633  53.2176  73.8535 0001405  88.7191 157.3406 15.16088796  1301,6895.812,94.981,518.646,516.7080000000002,0.0
52633.0,STARLINK-3994,PAYLOAD,2022-07-29 12:00:00,15.1476093,0.0001401,53.2173,71.2131,85.3999,104.7837,-0.06195,-0.01076581,0.0,0 STARLINK-3994,1 52633U 22052AM  22210.50001157 -.01076581  00000-0 -61950-1 0  9998,2 52633  53.2173  71.2131 0001401  85.3999 104.7837 15.14760930 12218,6899.840999999999,95.065,522.673,520.74,0.0
52633.0,STARLINK-3994,PAYLOAD,2022-07-29 14:00:01,15.14569507,0.0001320999999999,53.2176,70.8365,91.4257,193.4048,-0.062085,-0.01073314,0.0,0 STARLINK-3994,1 52633U 22052AM  22210.58334491 -.01073314  00000-0 -62085-1 0  9997,2 52633  53.2176  70.8365 0001321  91.4257 193.4048 15.14569507  1305,6900.4230000000025,95.077,523.1990000000002,521.376,0.0
52633.0,STARLINK-3994,PAYLOAD,2022-07-29 22:00:00,15.13810761,0.0001317,53.2176,69.3336,81.3016,221.5432,-0.0635059999999999,-0.01074433,0.0,0 STARLINK-3994,1 52633U 22052AM  22210.91667824 -.01074433  00000-0 -63506-1 0  9995,2 52633  53.2176  69.3336 0001317  81.3016 221.5432 15.13810761  1302,6902.728,95.124,525.502,523.684,0.0
52633.0,STARLINK-3994,PAYLOAD,2022-07-30 12:00:00,15.12480584,0.000139,53.2173,66.7021,81.8462,160.3324,-0.0658919999999999,-0.01073842,0.0,0 STARLINK-3994,1 52633U 22052AM  22211.50001157 -.01073842  00000-0 -65892-1 0  9995,2 52633  53.2173  66.7021 0001390  81.8462 160.3324 15.12480584 12365,6906.775,95.208,529.6,527.68,0.0
52633.0,STARLINK-3994,PAYLOAD,2022-07-30 14:00:01,15.12289854,0.0001248,53.2176,66.3272,81.745,254.3952,-0.066057,-0.01070983,0.0,0 STARLINK-3994,1 52633U 22052AM  22211.58334491 -.01070983  00000-0 -66057-1 0  9990,2 52633  53.2176  66.3272 0001248  81.7450 254.3952 15.12289854  1300,6907.356,95.22,530.0830000000002,528.359,0.0
52633.0,STARLINK-3994,PAYLOAD,2022-07-30 22:00:00,15.11533105,0.0001330999999999,53.2175,64.8295,66.331,285.0849,-0.0677909999999999,-0.01075701,0.0,0 STARLINK-3994,1 52633U 22052AM  22211.91667824 -.01075701  00000-0 -67791-1 0  9995,2 52633  53.2175  64.8295 0001331  66.3310 285.0849 15.11533105  1300,6909.661,95.268,532.446,530.606,0.0
52633.0,STARLINK-3994,PAYLOAD,2022-07-31 04:00:00,15.10964099,0.0001314,53.2173,63.7053,90.7284,181.5475,-0.068977,-0.01077167,0.0,0 STARLINK-3994,1 52633U 22052AM  22212.16667824 -.01077167  00000-0 -68977-1 0  9998,2 52633  53.2173  63.7053 0001314  90.7284 181.5475 15.10964099 12463,6911.395,95.303,534.169,532.352,0.0
52633.0,STARLINK-3994,PAYLOAD,2022-07-31 14:00:01,15.09998104,0.0001187,53.2175,61.833,74.1604,305.0787,-0.068423,-0.01042827,0.0,0 STARLINK-3994,1 52633U 22052AM  22212.58334491 -.01042827  00000-0 -68423-1 0  9996,2 52633  53.2175  61.8330 0001187  74.1604 305.0787 15.09998104  1304,6914.343000000003,95.364,537.029,535.387,0.0
52633.0,STARLINK-3994,PAYLOAD,2022-07-31 20:00:01,15.09321116,0.0001311,53.2173,60.712,63.0323,235.7093,-0.03733,-0.00563549,0.0,0 STARLINK-3994,1 52633U 22052AM  22212.83334491 -.00563549  00000-0 -37330-1 0  9995,2 52633  53.2173  60.7120 0001311  63.0323 235.7093 15.09321116 12563,6916.41,95.407,539.182,537.368,0.0
52633.0,STARLINK-3994,PAYLOAD,2022-07-31 22:00:00,15.09164787,0.0001291,53.2174,60.3384,61.8784,329.9048,-0.028391,-0.00429721,0.0,0 STARLINK-3994,1 52633U 22052AM  22212.91667824 -.00429721  00000-0 -28391-1 0  9993,2 52633  53.2174  60.3384 0001291  61.8784 329.9048 15.09164787  1301,6916.888000000001,95.417,539.646,537.86,0.0
52633.0,STARLINK-3994,PAYLOAD,2022-08-01 04:00:00,15.08834238,0.0001209,53.2172,59.2156,82.2577,228.4235,0.00013439,1.851e-05,0.0,0 STARLINK-3994,1 52633U 22052AM  22213.16667824  .00001851  00000-0  13439-3 0  9998,2 52633  53.2172  59.2156 0001209  82.2577 228.4235 15.08834238 12621,6917.898,95.438,540.599,538.927,0.0
52633.0,STARLINK-3994,PAYLOAD,2022-08-01 12:00:00,15.08848183,0.0001267,53.2155,57.7067,85.632,236.6496,0.0022651,0.00035953,0.0,0 STARLINK-3994,1 52633U 22052AM  22213.50001157  .00035953  00000-0  22651-2 0  9992,2 52633  53.2155  57.7067 0001267  85.6320 236.6496 15.08848183 12672,6917.855,95.437,540.597,538.844,0.0
52633.0,STARLINK-3994,PAYLOAD,2022-08-01 14:00:01,15.08874569,0.0001283,53.2157,57.3328,85.3894,329.7887,-0.00065941,-0.00010777,0.0,0 STARLINK-3994,1 52633U 22052AM  22213.58334491 -.00010777  00000-0 -65941-3 0  9999,2 52633  53.2157  57.3328 0001283  85.3894 329.7887 15.08874569  1304,6917.775,95.435,540.5269999999998,538.752,0.0
52633.0,STARLINK-3994,PAYLOAD,2022-08-01 20:00:01,15.08858426,0.0001324,53.2157,56.2119,76.6978,257.1999,-0.0028614,-0.00045562,0.0,0 STARLINK-3994,1 52633U 22052AM  22213.83334491 -.00045562  00000-0 -28614-2 0  9992,2 52633  53.2157  56.2119 0001324  76.6978 257.1999 15.08858426 12722,6917.824000000001,95.436,540.605,538.773,0.0
52633.0,STARLINK-3994,PAYLOAD,2022-08-01 22:00:00,15.08837306,0.0001335,53.2159,55.8381,74.7565,352.0483,-0.00085626,-0.00013888,0.0,0 STARLINK-3994,1 52633U 22052AM  22213.91667824 -.00013888  00000-0 -85626-3 0  9993,2 52633  53.2159  55.8381 0001335  74.7565 352.0483 15.08837306  1302,6917.889,95.438,540.677,538.83,0.0
52633.0,STARLINK-3994,PAYLOAD,2022-08-02 12:00:00,15.08797731,0.000133,53.2162,53.2173,85.6454,271.4333,0.0025366,0.00040266,0.0,0 STARLINK-3994,1 52633U 22052AM  22214.50001157  .00040266  00000-0  25366-2 0  9992,2 52633  53.2162  53.2173 0001330  85.6454 271.4333 15.08797731 12824,6918.01,95.44,540.795,538.9540000000002,0.0
52633.0,STARLINK-3994,PAYLOAD,2022-08-02 14:00:01,15.08818409,0.0001351,53.2164,52.8434,85.3957,4.566,0.00053075,8.164e-05,0.0,0 STARLINK-3994,1 52633U 22052AM  22214.58334491  .00008164  00000-0  53075-3 0  9990,2 52633  53.2164  52.8434 0001351  85.3957   4.5660 15.08818409  1304,6917.946,95.439,540.746,538.877,0.0
52633.0,STARLINK-3994,PAYLOAD,2022-08-03 04:00:00,15.08838966,0.0001333,53.2163,50.2257,76.4647,303.7404,-0.0019477999999999,-0.00031152,0.0,0 STARLINK-3994,1 52633U 22052AM  22215.16667824 -.00031152  00000-0 -19478-2 0  9997,2 52633  53.2163  50.2257 0001333  76.4647 303.7404 15.08838966 12925,6917.884,95.438,540.6709999999998,538.826,0.0
52633.0,STARLINK-3994,PAYLOAD,2022-08-03 14:00:01,15.0883428,0.0001337,53.2169,48.3544,86.5573,38.1187,0.00012538,1.708e-05,0.0,0 STARLINK-3994,1 52633U 22052AM  22215.58334491  .00001708  00000-0  12538-3 0  9997,2 52633  53.2169  48.3544 0001337  86.5573  38.1187 15.08834280  1304,6917.898,95.438,540.688,538.8380000000002,0.0
52633.0,STARLINK-3994,PAYLOAD,2022-08-03 20:00:01,15.08833431,0.0001376999999999,53.2167,47.2336,77.7468,325.6214,-0.0005797,-9.5e-05,0.0,0 STARLINK-3994,1 52633U 22052AM  22215.83334491 -.00009500  00000-0 -57970-3 0  9994,2 52633  53.2167  47.2336 0001377  77.7468 325.6214 15.08833431 13022,6917.9,95.438,540.7180000000002,538.813,0.0
52633.0,STARLINK-3994,PAYLOAD,2022-08-03 22:00:01,15.08816513,0.0001355,53.2168,46.8597,75.9845,60.3475,0.0017862,0.00028235,0.0,0 STARLINK-3994,1 52633U 22052AM  22215.91668981  .00028235  00000-0  17862-2 0  9996,2 52633  53.2168  46.8597 0001355  75.9845  60.3475 15.08816513  1304,6917.9519999999975,95.439,540.755,538.88,0.0
